NORAD_CAT_ID,OBJECT_NAME,OBJECT_TYPE,EPOCH,MEAN_MOTION,ECCENTRICITY,INCLINATION,RA_OF_ASC_NODE,ARG_OF_PERICENTER,MEAN_ANOMALY,BSTAR,MEAN_MOTION_DOT,MEAN_MOTION_DDOT,TLE_LINE0,TLE_LINE1,TLE_LINE2,SEMIMAJOR_AXIS,PERIOD,APOGEE,PERIGEE,DECAYED
53560.0,STARLINK-4564,PAYLOAD,2024-01-28 01:35:17,15.08840648,0.0001285,53.217,278.2647,99.4033,260.7105,6.0244e-05,6.71e-06,0.0,0 STARLINK-4564,1 53560U 22101AK  24028.06618053  .00000671  00000-0  60244-4 0  9994,2 53560  53.2170 278.2647 0001285  99.4033 260.7105 15.08840648 79954,6917.878,95.438,540.632,538.854,0.0
53560.0,STARLINK-4564,PAYLOAD,2024-01-28 22:15:19,15.08837724,0.0001346,53.2171,274.3982,94.9083,265.2063,5.0844e-05,5.21e-06,0.0,0 STARLINK-4564,1 53560U 22101AK  24028.92730373  .00000521  00000-0  50844-4 0  9998,2 53560  53.2171 274.3982 0001346  94.9083 265.2063 15.08837724 80087,6917.887,95.438,540.683,538.821,0.0
53560.0,STARLINK-4564,PAYLOAD,2024-01-29 01:26:05,15.08841539,0.0001407,53.2177,273.7988,91.7126,268.4027,7.5482e-05,9.14e-06,0.0,0 STARLINK-4564,1 53560U 22101AK  24029.05978039  .00000914  00000-0  75482-4 0  9997,2 53560  53.2177 273.7988 0001407  91.7126 268.4027 15.08841539 80100,6917.876,95.437,540.714,538.767,0.0
53560.0,STARLINK-4564,PAYLOAD,2024-01-30 01:16:51,15.08844623,0.0001426,53.218,269.338,89.6422,270.4734,0.00010227,1.34e-05,0.0,0 STARLINK-4564,1 53560U 22101AK  24030.05337675  .00001340  00000-0  10227-3 0  9993,2 53560  53.2180 269.3380 0001426  89.6422 270.4734 15.08844623 80258,6917.866,95.437,540.718,538.745,0.0
53560.0,STARLINK-4564,PAYLOAD,2024-01-30 21:56:52,15.08844498,0.0001448,53.217,265.4724,88.9754,271.1404,3.2131e-05,2.23e-06,0.0,0 STARLINK-4564,1 53560U 22101AK  24030.91449794  .00000223  00000-0  32131-4 0  9992,2 53560  53.2170 265.4724 0001448  88.9754 271.1404 15.08844498 80386,6917.867,95.437,540.733,538.73,0.0
53560.0,STARLINK-4564,PAYLOAD,2024-01-31 15:26:07,15.08838987,0.000134,53.2165,262.2018,93.7482,266.3664,1.1314e-05,-1.08e-06,0.0,0 STARLINK-4564,1 53560U 22101AK  24031.64314010 -.00000108  00000-0  11314-4 0  9998,2 53560  53.2165 262.2018 0001340  93.7482 266.3664 15.08838987 80496,6917.883,95.438,540.675,538.821,0.0
53560.0,STARLINK-4564,PAYLOAD,2024-02-01 00:58:26,15.08838151,0.0001559,53.216,260.4202,80.1552,279.9616,3.2456e-05,2.29e-06,0.0,0 STARLINK-4564,1 53560U 22101AK  24032.04058114  .00000229  00000-0  32456-4 0  9996,2 53560  53.2160 260.4202 0001559  80.1552 279.9616 15.08838151 80553,6917.886,95.438,540.83,538.673,0.0
53560.0,STARLINK-4564,PAYLOAD,2024-02-02 00:49:12,15.08841811,0.0001519,53.2158,255.9592,86.2628,273.8538,7.2097e-05,8.6e-06,0.0,0 STARLINK-4564,1 53560U 22101AK  24033.03417692  .00000860  00000-0  72097-4 0  9992,2 53560  53.2158 255.9592 0001519  86.2628 273.8538 15.08841811 80708,6917.875,95.437,540.791,538.689,0.0
53560.0,STARLINK-4564,PAYLOAD,2024-02-02 19:53:51,15.08834791,0.0001455,53.216,252.3854,100.9413,259.1743,2.8568e-05,1.67e-06,0.0,0 STARLINK-4564,1 53560U 22101AK  24033.82906369  .00000167  00000-0  28568-4 0  9997,2 53560  53.2160 252.3854 0001455 100.9413 259.1743 15.08834791 80825,6917.896,95.438,540.768,538.755,0.0
53560.0,STARLINK-4564,PAYLOAD,2024-02-02 21:29:14,15.08835187,0.0001432,53.2162,252.0883,95.5302,264.5853,2.7171e-05,1.44e-06,0.0,0 STARLINK-4564,1 53560U 22101AK  24033.89530371  .00000144  00000-0  27171-4 0  9994,2 53560  53.2162 252.0883 0001432  95.5302 264.5853 15.08835187 80830,6917.895,95.438,540.751,538.769,0.0
53560.0,STARLINK-4564,PAYLOAD,2024-02-03 00:40:00,15.08834371,0.0001472,53.2163,251.4958,94.3988,265.7172,1.599e-05,-3.4e-07,0.0,0 STARLINK-4564,1 53560U 22101AK  24034.02778500 -.00000034  00000-0  15990-4 0  9993,2 53560  53.2163 251.4958 0001472  94.3988 265.7172 15.08834371 80851,6917.898,95.438,540.781,538.744,0.0
53560.0,STARLINK-4564,PAYLOAD,2024-02-03 21:20:01,15.08834255,0.0001419,53.2162,247.6309,101.7654,258.3497,7.8921e-05,9.68e-06,0.0,0 STARLINK-4564,1 53560U 22101AK  24034.88890330  .00000968  00000-0  78921-4 0  9991,2 53560  53.2162 247.6309 0001419 101.7654 258.3497 15.08834255 80984,6917.898,95.438,540.745,538.781,0.0
53560.0,STARLINK-4564,PAYLOAD,2024-02-04 00:30:47,15.08835604,0.0001391,53.2163,247.0361,96.2066,263.9085,8.7877e-05,1.111e-05,0.0,0 STARLINK-4564,1 53560U 22101AK  24035.02138298  .00001111  00000-0  87877-4 0  9997,2 53560  53.2163 247.0361 0001391  96.2066 263.9085 15.08835604 81009,6917.894,95.438,540.721,538.797,0.0
53560.0,STARLINK-4564,PAYLOAD,2024-02-04 21:10:48,15.08838415,0.0001333,53.2161,243.1702,91.7834,268.3311,5.2067e-05,5.41e-06,0.0,0 STARLINK-4564,1 53560U 22101AK  24035.88250535  .00000541  00000-0  52067-4 0  9999,2 53560  53.2161 243.1702 0001333  91.7834 268.3311 15.08838415 81130,6917.885,95.438,540.672,538.828,0.0
53560.0,STARLINK-4564,PAYLOAD,2024-02-05 06:43:07,15.08838326,0.0001384,53.2164,241.3858,84.4506,275.6644,6.0434e-05,6.74e-06,0.0,0 STARLINK-4564,1 53560U 22101AK  24036.27994634  .00000674  00000-0  60434-4 0  9992,2 53560  53.2164 241.3858 0001384  84.4506 275.6644 15.08838326 81193,6917.886,95.438,540.708,538.793,0.0
53560.0,STARLINK-4564,PAYLOAD,2024-02-05 21:01:35,15.08838352,0.0001386,53.2166,238.7089,83.8068,276.3082,3.8167e-05,3.2e-06,0.0,0 STARLINK-4564,1 53560U 22101AK  24036.87610793  .00000320  00000-0  38167-4 0  9995,2 53560  53.2166 238.7089 0001386  83.8068 276.3082 15.08838352 81282,6917.885,95.438,540.709,538.792,0.0
53560.0,STARLINK-4564,PAYLOAD,2024-02-06 12:55:26,15.08840827,0.000139,53.2165,235.7354,83.4476,276.6674,6.9283e-05,8.15e-06,0.0,0 STARLINK-4564,1 53560U 22101AK  24037.53850595  .00000815  00000-0  69283-4 0  9997,2 53560  53.2165 235.7354 0001390  83.4476 276.6674 15.08840827 81388,6917.878,95.438,540.704,538.781,0.0
53560.0,STARLINK-4564,PAYLOAD,2024-02-06 19:16:59,15.08845932,0.0001386,53.2165,234.5485,83.7654,276.3496,8.7265e-05,1.101e-05,0.0,0 STARLINK-4564,1 53560U 22101AK  24037.80346160  .00001101  00000-0  87265-4 0  9994,2 53560  53.2165 234.5485 0001386  83.7654 276.3496 15.08845932 81422,6917.862,95.437,540.686,538.768,0.0
53560.0,STARLINK-4564,PAYLOAD,2024-02-07 12:46:13,15.08840955,0.0001329,53.2159,231.278,83.662,276.4523,8.2738e-05,1.029e-05,0.0,0 STARLINK-4564,1 53560U 22101AK  24038.53210403  .00001029  00000-0  82738-4 0  9994,2 53560  53.2159 231.2780 0001329  83.6620 276.4523 15.08840955 81530,6917.877,95.437,540.662,538.823,0.0
53560.0,STARLINK-4564,PAYLOAD,2024-02-07 19:07:46,15.08840599,0.0001217,53.2152,230.0879,85.3553,274.7578,8.4273e-05,1.054e-05,0.0,0 STARLINK-4564,1 53560U 22101AK  24038.79706406  .00001054  00000-0  84273-4 0  9999,2 53560  53.2152 230.0879 0001217  85.3553 274.7578 15.08840599 81578,6917.879,95.438,540.585,538.902,0.0
53560.0,STARLINK-4564,PAYLOAD,2024-02-08 06:15:28,15.08842638,0.0001221,53.2153,228.0062,86.7261,273.3871,4.0173e-05,3.52e-06,0.0,0 STARLINK-4564,1 53560U 22101AK  24039.26074376  .00000352  00000-0  40173-4 0  9997,2 53560  53.2153 228.0062 0001221  86.7261 273.3871 15.08842638 81641,6917.872,95.437,540.582,538.893,0.0
53560.0,STARLINK-4564,PAYLOAD,2024-02-08 18:58:33,15.08840353,0.0001359,53.2167,225.6272,93.3337,266.781,1.2629e-06,-2.68e-06,0.0,0 STARLINK-4564,1 53560U 22101AK  24039.79066608 -.00000268  00000-0  12629-5 0  9997,2 53560  53.2167 225.6272 0001359  93.3337 266.7810 15.08840353 81722,6917.879,95.438,540.684,538.804,0.0
53560.0,STARLINK-4564,PAYLOAD,2024-02-09 12:27:48,15.08835113,0.0001348,53.217,222.3555,94.5396,265.575,8.9675e-06,-1.45e-06,0.0,0 STARLINK-4564,1 53560U 22101AK  24040.51931013 -.00000145  00000-0  89675-5 0  9999,2 53560  53.2170 222.3555 0001348  94.5396 265.5750 15.08835113 81830,6917.895,95.438,540.693,538.828,0.0
53560.0,STARLINK-4564,PAYLOAD,2024-02-09 18:49:18,15.08865519,0.0001359,53.2171,221.1659,103.5007,256.6137,0.00025735,3.813e-05,0.0,0 STARLINK-4564,1 53560U 22101AK  24040.78424279  .00003813  00000-0  25735-3 0  9998,2 53560  53.2171 221.1659 0001359 103.5007 256.6137 15.08865519 81872,6917.802,95.436,540.608,538.727,0.0
53560.0,STARLINK-4564,PAYLOAD,2024-02-10 12:18:34,15.08839685,0.0001366,53.2171,217.8935,99.8138,260.3008,6.4181e-05,7.34e-06,0.0,0 STARLINK-4564,1 53560U 22101AK  24041.51290239  .00000734  00000-0  64181-4 0  9995,2 53560  53.2171 217.8935 0001366  99.8138 260.3008 15.08839685 81987,6917.881,95.438,540.691,538.801,0.0
53560.0,STARLINK-4564,PAYLOAD,2024-02-10 18:40:08,15.08830692,0.0001161,53.2166,216.7029,97.0626,263.0498,1.7495e-09,-2.88e-06,0.0,0 STARLINK-4564,1 53560U 22101AK  24041.77787046 -.00000288  00000-0  17495-8 0  9995,2 53560  53.2166 216.7029 0001161  97.0626 263.0498 15.08830692 82026,6917.909,95.438,540.577,538.971,0.0
53560.0,STARLINK-4564,PAYLOAD,2024-02-11 10:33:59,15.08848711,0.0001087,53.2165,213.7273,91.0039,269.1078,-0.0002055,-3.558e-05,0.0,0 STARLINK-4564,1 53560U 22101AK  24042.44027109 -.00003558  00000-0 -20550-3 0  9992,2 53560  53.2165 213.7273 0001087  91.0039 269.1078 15.08848711 82125,6917.854,95.437,540.471,538.967,0.0
53560.0,STARLINK-4564,PAYLOAD,2024-02-11 16:55:31,15.08855364,0.0001155,53.2167,212.5439,89.6171,270.4954,-0.0001098,-2.036e-05,0.0,0 STARLINK-4564,1 53560U 22101AK  24042.70522133 -.00002036  00000-0 -10980-3 0  9994,2 53560  53.2167 212.5439 0001155  89.6171 270.4954 15.08855364 82168,6917.833,95.437,540.497,538.899,0.0
53560.0,STARLINK-4564,PAYLOAD,2024-02-12 10:24:46,15.08832912,0.0001117,53.2161,209.2737,76.0938,284.0178,0.0001288,1.762e-05,0.0,0 STARLINK-4564,1 53560U 22101AK  24043.43386757  .00001762  00000-0  12880-3 0  9999,2 53560  53.2161 209.2737 0001117  76.0938 284.0178 15.08832912 82270,6917.902,95.438,540.54,538.994,0.0
53560.0,STARLINK-4564,PAYLOAD,2024-02-12 18:21:41,15.08834488,0.000117,53.2161,207.7854,77.9823,282.1301,0.00013831,1.914e-05,0.0,0 STARLINK-4564,1 53560U 22101AK  24043.76506905  .00001914  00000-0  13831-3 0  9990,2 53560  53.2161 207.7854 0001170  77.9823 282.1301 15.08834488 82328,6917.897,95.438,540.572,538.953,0.0
